NORAD_CAT_ID,OBJECT_NAME,OBJECT_TYPE,EPOCH,MEAN_MOTION,ECCENTRICITY,INCLINATION,RA_OF_ASC_NODE,ARG_OF_PERICENTER,MEAN_ANOMALY,BSTAR,MEAN_MOTION_DOT,MEAN_MOTION_DDOT,TLE_LINE0,TLE_LINE1,TLE_LINE2,SEMIMAJOR_AXIS,PERIOD,APOGEE,PERIGEE,DECAYED
52336.0,STARLINK-3823,PAYLOAD,2023-03-06 05:56:06,15.08854915,0.0001403,53.2135,104.7094,95.6519,264.4633,0.00088942,0.00013901,0.0,0 STARLINK-3823,1 52336U 22045F   23065.24729440  .00013901  00000-0  88942-3 0  9998,2 52336  53.2135 104.7094 0001403  95.6519 264.4633 15.08854915 49667,6917.835,95.437,540.67,538.729,0.0
52336.0,STARLINK-3823,PAYLOAD,2023-03-06 13:53:01,15.08867168,0.0001476,53.2138,103.2202,106.9715,253.1439,0.00089253,0.00013956,0.0,0 STARLINK-3823,1 52336U 22045F   23065.57848710  .00013956  00000-0  89253-3 0  9992,2 52336  53.2138 103.2202 0001476 106.9715 253.1439 15.08867168 49718,6917.797,95.436,540.683,538.641,0.0
52336.0,STARLINK-3823,PAYLOAD,2023-03-07 08:57:39,15.08836607,0.0001525,53.2135,99.6517,116.4929,243.622,0.00014221,1.976e-05,0.0,0 STARLINK-3823,1 52336U 22045F   23066.37337512  .00001976  00000-0  14221-3 0  9996,2 52336  53.2135  99.6517 0001525 116.4929 243.6220 15.08836607 49839,6917.891,95.438,540.811,538.701,0.0
52336.0,STARLINK-3823,PAYLOAD,2023-03-07 13:43:48,15.08848194,0.0001382,53.2139,98.7599,119.7695,240.3435,0.00084524,0.00013193,0.0,0 STARLINK-3823,1 52336U 22045F   23066.57209410  .00013193  00000-0  84524-3 0  9990,2 52336  53.2139  98.7599 0001382 119.7695 240.3435 15.08848194 49869,6917.855,95.437,540.676,538.764,0.0
52336.0,STARLINK-3823,PAYLOAD,2023-03-08 02:26:54,15.08840531,0.0001527,53.2134,96.3839,103.9561,256.1601,0.00061181,9.463e-05,0.0,0 STARLINK-3823,1 52336U 22045F   23067.10202099  .00009463  00000-0  61181-3 0  9995,2 52336  53.2134  96.3839 0001527 103.9561 256.1601 15.08840531 49949,6917.879,95.438,540.8,538.687,0.0
52336.0,STARLINK-3823,PAYLOAD,2023-03-08 18:20:46,15.08847683,0.0001476,53.2135,93.4093,82.9325,277.1835,0.00088628,0.00013848,0.0,0 STARLINK-3823,1 52336U 22045F   23067.76442158  .00013848  00000-0  88628-3 0  9996,2 52336  53.2135  93.4093 0001476  82.9325 277.1835 15.08847683 50047,6917.857,95.437,540.743,538.701,0.0
52336.0,STARLINK-3823,PAYLOAD,2023-03-09 07:03:50,15.08851457,0.0001165,53.2134,91.03,88.6557,271.4569,0.00090527,0.00014153,0.0,0 STARLINK-3823,1 52336U 22045F   23068.29433881  .00014153  00000-0  90527-3 0  9999,2 52336  53.2134  91.0300 0001165  88.6557 271.4569 15.08851457 50120,6917.845,95.437,540.516,538.904,0.0
52336.0,STARLINK-3823,PAYLOAD,2023-03-09 18:11:32,15.08853449,0.0001174,53.2134,88.948,93.1331,266.9795,0.00070224,0.0001091,0.0,0 STARLINK-3823,1 52336U 22045F   23068.75801652  .00010910  00000-0  70224-3 0  9994,2 52336  53.2134  88.9480 0001174  93.1331 266.9795 15.08853449 50195,6917.839,95.437,540.516,538.892,0.0
52336.0,STARLINK-3823,PAYLOAD,2023-03-10 05:19:14,15.08844624,0.0001488,53.2145,86.867,97.1728,262.9433,0.00017865,2.557e-05,0.0,0 STARLINK-3823,1 52336U 22045F   23069.22169703  .00002557  00000-0  17865-3 0  9991,2 52336  53.2145  86.8670 0001488  97.1728 262.9433 15.08844624 50265,6917.866,95.437,540.761,538.702,0.0
52336.0,STARLINK-3823,PAYLOAD,2023-03-10 10:05:23,15.08856777,0.000126,53.2136,85.9731,102.7384,257.3748,0.00039021,5.931e-05,0.0,0 STARLINK-3823,1 52336U 22045F   23069.42041129  .00005931  00000-0  39021-3 0  9991,2 52336  53.2136  85.9731 0001260 102.7384 257.3748 15.08856777 50294,6917.829,95.436,540.566,538.822,0.0
52336.0,STARLINK-3823,PAYLOAD,2023-03-10 18:02:19,15.08843072,0.0001725,53.2138,84.4864,83.8117,276.3072,0.00010907,1.448e-05,0.0,0 STARLINK-3823,1 52336U 22045F   23069.75161686  .00001448  00000-0  10907-3 0  9999,2 52336  53.2138  84.4864 0001725  83.8117 276.3072 15.08843072 50347,6917.871,95.437,540.929,538.543,0.0
52336.0,STARLINK-3823,PAYLOAD,2023-03-11 06:45:25,15.08829142,0.0001781,53.2152,82.108,81.9733,278.1461,-0.00017737,-3.109e-05,0.0,0 STARLINK-3823,1 52336U 22045F   23070.28154313 -.00003109  00000-0 -17737-3 0  9994,2 52336  53.2152  82.1080 0001781  81.9733 278.1461 15.08829142 50426,6917.914,95.438,541.011,538.546,0.0
52336.0,STARLINK-3823,PAYLOAD,2023-03-11 13:06:57,15.08838129,0.000153,53.215,80.9153,81.3962,278.7203,1.1123e-05,-1.11e-06,0.0,0 STARLINK-3823,1 52336U 22045F   23070.54650176 -.00000111  00000-0  11123-4 0  9994,2 52336  53.2150  80.9153 0001530  81.3962 278.7203 15.08838129 50460,6917.886,95.438,540.81,538.693,0.0
52336.0,STARLINK-3823,PAYLOAD,2023-03-12 11:22:21,15.0885329,0.000138,53.2154,76.755,99.7587,260.3561,0.00021353,3.113e-05,0.0,0 STARLINK-3823,1 52336U 22045F   23071.47385607  .00003113  00000-0  21353-3 0  9990,2 52336  53.2154  76.7550 0001380  99.7587 260.3561 15.08853290 50603,6917.84,95.437,540.659,538.75,0.0
52336.0,STARLINK-3823,PAYLOAD,2023-03-13 03:16:13,15.08842305,0.0001577,53.2167,73.783,99.784,260.333,0.0002386,3.512e-05,0.0,0 STARLINK-3823,1 52336U 22045F   23072.13626221  .00003512  00000-0  23860-3 0  9992,2 52336  53.2167  73.7830 0001577  99.7840 260.3330 15.08842305 50705,6917.873,95.437,540.829,538.647,0.0
52336.0,STARLINK-3823,PAYLOAD,2023-03-13 11:13:08,15.08854694,0.0001602,53.217,72.2969,106.5772,253.5396,0.00031985,4.808e-05,0.0,0 STARLINK-3823,1 52336U 22045F   23072.46745555  .00004808  00000-0  31985-3 0  9996,2 52336  53.2170  72.2969 0001602 106.5772 253.5396 15.08854694 50751,6917.835,95.437,540.809,538.592,0.0
52336.0,STARLINK-3823,PAYLOAD,2023-03-14 04:42:23,15.08834736,0.0001425,53.2155,69.0224,101.7152,258.4,-5.4484e-05,-1.155e-05,0.0,0 STARLINK-3823,1 52336U 22045F   23073.19610553 -.00001155  00000-0 -54484-4 0  9990,2 52336  53.2155  69.0224 0001425 101.7152 258.4000 15.08834736 50867,6917.896,95.438,540.747,538.776,0.0
52336.0,STARLINK-3823,PAYLOAD,2023-03-14 09:28:32,15.08836964,0.0001371,53.2154,68.1299,89.9855,270.1294,9.6206e-05,1.243e-05,0.0,0 STARLINK-3823,1 52336U 22045F   23073.39482628  .00001243  00000-0  96206-4 0  9996,2 52336  53.2154  68.1299 0001371  89.9855 270.1294 15.08836964 50899,6917.89,95.438,540.703,538.806,0.0
52336.0,STARLINK-3823,PAYLOAD,2023-03-15 06:08:33,15.08871952,0.000128,53.2156,64.2654,79.174,280.9396,0.0014213,0.00022424,0.0,0 STARLINK-3823,1 52336U 22045F   23074.25594060  .00022424  00000-0  14213-2 0  9996,2 52336  53.2156  64.2654 0001280  79.1740 280.9396 15.08871952 51020,6917.783,95.436,540.533,538.762,0.0
52336.0,STARLINK-3823,PAYLOAD,2023-03-15 10:54:42,15.08888572,0.0001328,53.2161,63.374,83.3786,276.7357,0.0017279,0.00027355,0.0,0 STARLINK-3823,1 52336U 22045F   23074.45465431  .00027355  00000-0  17279-2 0  9990,2 52336  53.2161  63.3740 0001328  83.3786 276.7357 15.08888572 51051,6917.732,95.434,540.516,538.678,0.0
52336.0,STARLINK-3823,PAYLOAD,2023-03-16 05:59:20,15.08847071,0.0001208,53.2158,59.8057,70.1215,289.9907,0.0015362,0.0002425,0.0,0 STARLINK-3823,1 52336U 22045F   23075.24954084  .00024250  00000-0  15362-2 0  9997,2 52336  53.2158  59.8057 0001208  70.1215 289.9907 15.08847071 51175,6917.859,95.437,540.559,538.888,0.0
52336.0,STARLINK-3823,PAYLOAD,2023-03-16 10:45:29,15.08857665,0.0001279,53.2156,58.9134,106.6628,253.4505,0.0015429,0.00024364,0.0,0 STARLINK-3823,1 52336U 22045F   23075.44825713  .00024364  00000-0  15429-2 0  9995,2 52336  53.2156  58.9134 0001279 106.6628 253.4505 15.08857665 51204,6917.826,95.436,540.576,538.807,0.0
52336.0,STARLINK-3823,PAYLOAD,2023-03-16 15:31:39,15.08814634,0.0001571,53.2158,58.0215,88.0264,272.0909,0.0014022,0.00022083,0.0,0 STARLINK-3823,1 52336U 22045F   23075.64698151  .00022083  00000-0  14022-2 0  9995,2 52336  53.2158  58.0215 0001571  88.0264 272.0909 15.08814634 51238,6917.958,95.439,540.91,538.736,0.0
52336.0,STARLINK-3823,PAYLOAD,2023-03-17 09:00:54,15.08831749,0.0001345,53.2159,54.7504,105.9372,254.1769,0.0011652,0.00018301,0.0,0 STARLINK-3823,1 52336U 22045F   23076.37562877  .00018301  00000-0  11652-2 0  9995,2 52336  53.2159  54.7504 0001345 105.9372 254.1769 15.08831749 51344,6917.906,95.438,540.701,538.84,0.0
52336.0,STARLINK-3823,PAYLOAD,2023-03-17 21:43:59,15.08838293,0.0001166,53.2156,52.3696,95.6768,264.4357,0.00062529,9.677e-05,0.0,0 STARLINK-3823,1 52336U 22045F   23076.90555000  .00009677  00000-0  62529-3 0  9990,2 52336  53.2156  52.3696 0001166  95.6768 264.4357 15.08838293 51429,6917.886,95.438,540.557,538.944,0.0
52336.0,STARLINK-3823,PAYLOAD,2023-03-18 10:27:04,15.08860903,0.0001157,53.2151,49.9904,98.141,261.9713,0.00095252,0.00014913,0.0,0 STARLINK-3823,1 52336U 22045F   23077.43546387  .00014913  00000-0  95252-3 0  9995,2 52336  53.2151  49.9904 0001157  98.1410 261.9713 15.08860903 51500,6917.816,95.436,540.482,538.881,0.0
52336.0,STARLINK-3823,PAYLOAD,2023-03-18 15:13:13,15.08835778,0.0001144,53.215,49.0993,95.2389,264.8733,-7.525e-05,-1.485e-05,0.0,0 STARLINK-3823,1 52336U 22045F   23077.63418852 -.00001485  00000-0 -75250-4 0  9991,2 52336  53.2150  49.0993 0001144  95.2389 264.8733 15.08835778 51536,6917.893,95.438,540.55,538.967,0.0
52336.0,STARLINK-3823,PAYLOAD,2023-03-18 21:34:46,15.08836912,6.88e-05,53.216,47.9104,94.6793,265.4278,2.4398e-05,1.01e-06,0.0,0 STARLINK-3823,1 52336U 22045F   23077.89914762  .00000101  00000-0  24398-4 0  9999,2 52336  53.2160  47.9104 0000688  94.6793 265.4278 15.08836912 51578,6917.89,95.438,540.231,539.279,0.0
52336.0,STARLINK-3823,PAYLOAD,2023-03-19 05:31:41,15.08854666,0.0001218,53.2154,46.4222,92.1101,268.003,0.00072734,0.00011311,0.0,0 STARLINK-3823,1 52336U 22045F   23078.23034579  .00011311  00000-0  72734-3 0  9998,2 52336  53.2154  46.4222 0001218  92.1101 268.0030 15.08854666 51629,6917.836,95.437,540.543,538.858,0.0
52336.0,STARLINK-3823,PAYLOAD,2023-03-19 10:17:51,15.08861578,0.0001219,53.2152,45.5297,92.0508,268.0623,0.0010031,0.00015722,0.0,0 STARLINK-3823,1 52336U 22045F   23078.42906372  .00015722  00000-0  10031-2 0  9999,2 52336  53.2152  45.5297 0001219  92.0508 268.0623 15.08861578 51651,6917.814,95.436,540.523,538.836,0.0
